SATELIOT_3              
1 60552U 24149CN  26068.79802274  .00002865  00000+0  25003-3 0  9992
2 60552  97.6866 147.0596 0005831  63.3535 296.8284 14.97601684 85206
STARLINK-34384          
1 64312U 25123X   26068.73366714  .00006108  00000+0  51922-3 0  9994
2 64312  70.0026 194.4036 0003996 269.0225  91.0476 14.98332101 41625
